IRIDIUM 106             
1 41917U 17003A   23277.91747632  .00000484  00000+0  16587-3 0  9998
2 41917  86.3976 140.7368 0001981  86.2145 273.9277 14.34218044351846
IRIDIUM 103             
1 41918U 17003B   23277.90479376 -.00000058  00000+0 -27842-4 0  9991
2 41918  86.3983 140.6433 0001964  70.2241 289.9166 14.34216044351862
IRIDIUM 109             
1 41919U 17003C   23277.91114316  .00000463  00000+0  15828-3 0  9991
2 41919  86.3984 140.6853 0002320  86.6237 273.5224 14.34218628351834
IRIDIUM 102             
1 41920U 17003D   23277.87942259 -.00000310  00000+0 -11774-3 0  9992
2 41920  86.3983 140.6423 0002208  84.1636 275.9811 14.34217663351914
IRIDIUM 105             
1 41921U 17003E   23277.91988878  .00000187  00000+0  59802-4 0  9990
2 41921  86.3922 109.0457 0002091  85.7944 274.3491 14.34223721353778
IRIDIUM 104             
1 41922U 17003F   23277.89210884 -.00001508  00000+0 -54562-3 0  9990
2 41922  86.3981 140.6645 0002192  76.2922 283.8517 14.34215500351900
IRIDIUM 114             
1 41923U 17003G   23277.89843823 -.00001329  00000+0 -48164-3 0  9998
2 41923  86.3987 140.6490 0001676  87.7130 272.4258 14.34211069351888
IRIDIUM 108             
1 41924U 17003H   23277.92674734  .00000175  00000+0  55440-4 0  9998
2 41924  86.3916 108.9842 0001819  85.3458 274.7945 14.34217848353741
